OSCAR 7 (AO-7)          
1 07530U 74089B   23150.48415227 -.00000027  00000+0  11836-3 0  9998
2 07530 101.9463 137.0422 0012634  97.0949  22.8087 12.53664497220956
PHASE 3B (AO-10)        
1 14129U 83058B   23149.89974416 -.00000125  00000+0  00000+0 0  9995
2 14129  27.1974  39.6948 6034612 176.0369 192.6806  2.05868358272549
UOSAT 2 (UO-11)         
1 14781U 84021B   23150.46964673  .00001279  00000+0  15652-3 0  9992
2 14781  97.6563 128.0885 0006547 258.4388 101.6093 14.84850569 91517
LUSAT (LO-19)           
1 20442U 90005G   23150.43898773  .00000160  00000+0  75161-4 0  9996
2 20442  98.8427 126.5766 0010831 227.1766 132.8508 14.33255873742808
EYESAT A (AO-27)        
1 22825U 93061C   23150.36957863  .00000107  00000+0  58723-4 0  9992
2 22825  98.8421 192.9716 0009477 117.1383 243.0766 14.30302921547749
ITAMSAT (IO-26)         
1 22826U 93061D   23150.09775171  .00000128  00000+0  66533-4 0  9994
2 22826  98.8366 192.5591 0010115 105.4223 254.8077 14.30663338548220
RADIO ROSTO (RS-15)     
1 23439U 94085A   23150.44123503 -.00000040  00000+0  68990-4 0  9990
2 23439  64.8173 304.3871 0162755 213.3278 145.7314 11.27574209170326
JAS-2 (FO-29)           
1 24278U 96046B   23150.51888334 -.00000004  00000+0  28666-4 0  9995
2 24278  98.5274 131.4837 0351271 102.6822 261.3823 13.53145120322543
TECHSAT 1B (GO-32)      
1 25397U 98043D   23150.44198657  .00000084  00000+0  56341-4 0  9999
2 25397  98.8677 107.7460 0001566 141.5735 218.5555 14.23873883292801
ISS (ZARYA)             
1 25544U 98067A   23150.73362500  .00014222  00000+0  25397-3 0  9996
2 25544  51.6419  55.0557 0005274  37.8489  59.0538 15.50299462399084
PCSAT (NO-44)           
1 26931U 01043C   23150.44713294  .00000124  00000+0  78875-4 0  9999
2 26931  67.0513 242.6301 0007884 275.0800  84.9401 14.30917995131045
SAUDISAT 1C (SO-50)     
1 27607U 02058C   23149.75227555  .00001187  00000+0  18029-3 0  9993
2 27607  64.5547 321.4452 0070724 228.3625 131.1409 14.77254902 99507
CUTE-1 (CO-55)          
1 27844U 03031E   23150.45751681  .00000330  00000+0  16647-3 0  9992
2 27844  98.6777 157.9744 0009991 169.8522 190.2859 14.22773392 33212
CUBESAT XI-IV (CO-57)   
1 27848U 03031J   23150.46251078  .00000281  00000+0  14610-3 0  9995
2 27848  98.6812 158.4017 0009547 184.6683 175.4407 14.22284896 32988
MOZHAYETS 4 (RS-22)     
1 27939U 03042A   23150.54809212  .00001177  00000+0  21239-3 0  9996
2 27939  98.2410 297.3793 0012412 186.6607 246.5705 14.68346905 51821
CUBESAT XI-V            
1 28895U 05043F   23150.32122967  .00001403  00000+0  26680-3 0  9999
2 28895  98.1512 282.5208 0017420 126.3893 233.8920 14.65608167938194
CUTE-1.7+APD II (CO-65) 
1 32785U 08021C   23150.36026624  .00002448  00000+0  24566-3 0  9999
2 32785  97.7044 116.7000 0012815 155.4825 204.7006 14.92160835818162
DELFI-C3 (DO-64)        
1 32789U 08021G   23150.05274224  .00044577  00000+0  13184-2 0  9992
2 32789  97.3040 171.6873 0008453 165.2221 194.9271 15.34744919824606
SEEDS II (CO-66)        
1 32791U 08021J   23149.88601104  .00004699  00000+0  41769-3 0  9997
2 32791  97.6553 121.5106 0014030 109.5806 250.6932 14.96509617818925
YUBILEINY (RS-30)       
1 32953U 08025A   23150.49848022  .00000059  00000+0  35388-3 0  9998
2 32953  82.5019 328.1005 0018982 221.1596 138.8053 12.43124355681319
KKS-1 (KISEKI)          
1 33499U 09002H   23150.57909802  .00001055  00000+0  15709-3 0  9995
2 33499  98.1752  42.6700 0007410 287.5054  72.5345 14.77031402771464
SWISSCUBE               
1 35932U 09051B   23150.20673823  .00000859  00000+0  19889-3 0  9998
2 35932  98.5235  20.1366 0008744  65.6618 294.5491 14.57693477726595
BEESAT-1                
1 35933U 09051C   23150.44205693  .00000751  00000+0  17549-3 0  9993
2 35933  98.5165  21.7231 0007007  75.9018 284.2959 14.57606229726702
ITUPSAT1                
1 35935U 09051E   23150.47071572  .00000713  00000+0  17065-3 0  9996
2 35935  98.5266  21.7038 0009305  79.6150 280.6096 14.56658325726381
XIWANG-1 (HOPE-1)       
1 36122U 09072B   23150.45308397 -.00000023  00000+0  53226-4 0  9999
2 36122 100.2369 114.8899 0006767 263.7283  96.3060 13.16383208646469
JUGNU                   
1 37839U 11058B   23150.62084351  .00000420  00000+0  81227-4 0  9994
2 37839  19.9598 229.5147 0019032  25.6616 117.1410 14.12956665601292
SRMSAT                  
1 37841U 11058D   23150.53532664  .00000442  00000+0  97311-4 0  9997
2 37841  19.9732 316.7505 0011766 197.6632 206.4424 14.10896275600313
M-CUBED & EXP-1 PRIME   
1 37855U 11061F   23150.43620968  .00023735  00000+0  75993-3 0  9991
2 37855 101.7051 102.1836 0122238  94.5988 266.9209 15.25408081633850
STRAND-1                
1 39090U 13009E   23150.50903038  .00000309  00000+0  12214-3 0  9997
2 39090  98.3895 344.3558 0008166 324.0833  35.9804 14.35591312537188
SOMP                    
1 39134U 13015E   23149.90497332  .00080187  00000+0  10123-2 0  9998
2 39134  64.8506 348.2874 0017786 253.3923 106.5270 15.58927741560138
BEESAT-3                
1 39135U 13015F   23150.07554289  .00030418  00000+0  71202-3 0  9992
2 39135  64.8603  37.7550 0020755 241.3471 118.5581 15.41785401559147
BEESAT-2                
1 39136U 13015G   23150.15072174  .00026710  00000+0  68474-3 0  9997
2 39136  64.8698  48.7757 0026579 274.9060  84.9042 15.38935134558906
ZACUBE-1 (TSHEPISOSAT)  
1 39417U 13066B   23150.44241980  .00003777  00000+0  43877-3 0  9998
2 39417  97.6837 112.7327 0054572 347.8596  12.1300 14.84870462514566
GOMX-1                  
1 39430U 13066Q   23150.52773833  .00002388  00000+0  41939-3 0  9993
2 39430  97.7823  42.6957 0146599  29.8093 331.1360 14.61752788506776
CUBEBUG-2 (LO-74)       
1 39440U 13066AA  23150.38036146  .00002822  00000+0  36750-3 0  9995
2 39440  97.7714  99.7163 0077337  85.2564 275.7474 14.79293051511520
FUNCUBE-1 (AO-73)       
1 39444U 13066AE  23150.42539612  .00003997  00000+0  44628-3 0  9997
2 39444  97.6700 115.2472 0052322 333.3456  26.5072 14.86548204513001
UWE-3                   
1 39446U 13066AG  23150.40353503  .00003449  00000+0  42534-3 0  9996
2 39446  97.7335 105.9130 0066824  38.4610 322.1338 14.81942998511799
SPROUT                  
1 39770U 14029E   23150.57204133  .00016473  00000+0  12724-2 0  9996
2 39770  97.9813 277.2941 0006208   2.4339 357.6914 15.01604207489512
UNISAT-6                
1 40012U 14033C   23150.44176188  .00002307  00000+0  32777-3 0  9998
2 40012  97.6720 325.3717 0057056 113.4836 247.2386 14.76707922481153
DUCHIFAT-1              
1 40021U 14033M   23150.45128306  .00006996  00000+0  60118-3 0  9996
2 40021  98.0572 113.8414 0010077 345.8510  14.2428 14.97724860486538
QB50P1                  
1 40025U 14033R   23150.38387973  .00004136  00000+0  39545-3 0  9993
2 40025  97.9953  96.8277 0011171   2.4414 357.6857 14.93767964485486
ZDPS 2A                 
1 40901U 15049C   23150.46996985  .00031768  00000+0  76989-3 0  9996
2 40901  97.4447 165.4362 0008716 174.8990 185.2346 15.40979473426514
ZDPS 2B                 
1 40902U 15049D   23150.44378781  .00035623  00000+0  82837-3 0  9996
2 40902  97.4559 163.8063 0008842 171.4342 188.7058 15.42201510426502
KAITUO 1A               
1 40904U 15049F   23150.51432046  .00011226  00000+0  43918-3 0  9991
2 40904  97.4976 156.3062 0009784 229.9818 130.0562 15.25960366425619
2015-049G               
1 40905U 15049G   23150.52688144  .00005204  00000+0  23939-3 0  9995
2 40905  97.5230 153.1310 0011871 242.0183 117.9851 15.20720685425276
XW-2C                   
1 40906U 15049H   23150.51991661  .00009474  00000+0  37023-3 0  9998
2 40906  97.4937 157.6042 0010626 214.9793 145.0748 15.26037803425707
XW-2D                   
1 40907U 15049J   23150.56073113  .00012061  00000+0  44482-3 0  9990
2 40907  97.4917 158.1306 0009954 206.1177 153.9561 15.27896590425793
LILACSAT-2              
1 40908U 15049K   23150.57637147  .00004651  00000+0  22177-3 0  9998
2 40908  97.5246 153.6857 0012238 248.2089 111.7843 15.19531427425127
XW-2E                   
1 40909U 15049L   23150.48909334  .00023323  00000+0  63602-3 0  9994
2 40909  97.4533 164.1257 0009712 169.8068 190.3376 15.37412654426423
XW-2F                   
1 40910U 15049M   23150.47925090  .00023124  00000+0  64357-3 0  9999
2 40910  97.4625 163.3490 0010370 173.2877 186.8507 15.36774505426292
XW-2B                   
1 40911U 15049N   23150.48868601  .00011502  00000+0  42721-3 0  9993
2 40911  97.4897 158.5062 0009870 208.0961 151.9747 15.27677527425664
KAITUO 1B               
1 40912U 15049P   23150.56972722  .00030723  00000+0  70471-3 0  9992
2 40912  97.4179 168.0199 0011245 138.0838 222.1272 15.42616635426899
LAPAN-A2                
1 40931U 15052B   23150.46985237  .00001050  00000+0  56030-4 0  9998
2 40931   5.9986 212.9824 0012660  42.3476 317.7628 14.77221777414733
E-ST@R-II               
1 41459U 16025D   23150.48778407  .00028075  00000+0  83166-3 0  9991
2 41459  98.1882 350.0084 0109726 160.4021 200.1485 15.28982381390199
AAUSAT 4                
1 41460U 16025E   23150.50287350  .00094394  00000+0  13690-2 0  9999
2 41460  98.1633   2.0355 0063759 117.3342 243.4419 15.53121393391028
NUSAT-1 (FRESCO)        
1 41557U 16033B   23150.55763307  .00052118  00000+0  70781-3 0  9994
2 41557  97.3871 257.7747 0007966 195.7891 164.3117 15.57429327390882
BEESAT-4                
1 41619U 16040W   23150.07869107  .00063989  00000+0  87511-3 0  9990
2 41619  97.1596 199.5395 0002820 277.0539  83.0396 15.57224063374059
CAS-2T & KS-1Q          
1 41847U 16066G   23150.16867997  .00000698  00000+0  11458-3 0  9991
2 41847  98.5045 218.8055 0358795 251.4488 104.7413 14.39639968344217
NAYIF-1 (EO-88)         
1 42017U 17008BX  23150.18840588  .00153736  00000+0  10882-2 0  9998
2 42017  97.2109 220.8018 0002927 174.9899 185.1395 15.73520240350630
ZHUHAI-1 02 (CAS-4B)    
1 42759U 17034B   23150.54627206  .00005560  00000+0  28618-3 0  9998
2 42759  43.0150 213.7357 0011162 341.5095  18.5346 15.17156565328954
